start=new Date('2022-06-02T00:00:00.000Z').valueOf();
sats=[{"TLE_LINE1":"1 44767U 19074BG  22152.63708473  .00003712  00000-0  26799-3 0  9998","MEAN_MOTION_DDOT":"0.0000000000000","ECCENTRICITY":"0.00017530","SEMIMAJOR_AXIS":"6925.357","GP_ID":"205123486","COUNTRY_CODE":"US","NORAD_CAT_ID":"44767","ELEMENT_SET_NO":"999","MEAN_ELEMENT_THEORY":"SGP4","MEAN_ANOMALY":"305.8457","OBJECT_TYPE":"PAYLOAD","ARG_OF_PERICENTER":"54.2695","TLE_LINE2":"2 44767  53.0575 288.4343 0001753  54.2695 305.8457 15.06397372140644","PERIOD":"95.592","BSTAR":"0.00026799000000","PERIAPSIS":"546.008","APOAPSIS":"548.436","CLASSIFICATION_TYPE":"U","SITE":"AFETR","DECAY_DATE":null,"EPHEMERIS_TYPE":"0","REF_FRAME":"TEME","EPOCH":"2022-06-01T15:17:24.120672","OBJECT_NAME":"STARLINK-1062","LAUNCH_DATE":"2019-11-11","REV_AT_EPOCH":"14064","OBJECT_ID":"2019-074BG","CENTER_NAME":"EARTH","MEAN_MOTION_DOT":"0.00003712","RA_OF_ASC_NODE":"288.4343","TIME_SYSTEM":"UTC","RCS_SIZE":"LARGE","INCLINATION":"53.0575","FILE":"3476255","MEAN_MOTION":"15.06397372"},{"RCS_SIZE":"LARGE","TIME_SYSTEM":"UTC","INCLINATION":"53.0556","FILE":"3476255","MEAN_MOTION":"15.06392799","CENTER_NAME":"EARTH","MEAN_MOTION_DOT":"0.00003652","RA_OF_ASC_NODE":"288.3329","OBJECT_NAME":"STARLINK-1063","EPHEMERIS_TYPE":"0","REF_FRAME":"TEME","EPOCH":"2022-06-01T15:50:36.782016","LAUNCH_DATE":"2019-11-11","REV_AT_EPOCH":"14065","OBJECT_ID":"2019-074BH","SITE":"AFETR","DECAY_DATE":null,"BSTAR":"0.00026396000000","PERIOD":"95.593","APOAPSIS":"548.344","CLASSIFICATION_TYPE":"U","PERIAPSIS":"546.128","OBJECT_TYPE":"PAYLOAD","TLE_LINE2":"2 44768  53.0556 288.3329 0001600  61.6862 298.4289 15.06392799140655","ARG_OF_PERICENTER":"61.6862","COUNTRY_CODE":"US","MEAN_ELEMENT_THEORY":"SGP4","MEAN_ANOMALY":"298.4289","NORAD_CAT_ID":"44768","ELEMENT_SET_NO":"999","MEAN_MOTION_DDOT":"0.0000000000000","TLE_LINE1":"1 44768U 19074BH  22152.66014794  .00003652  00000-0  26396-3 0  9994","ECCENTRICITY":"0.00016000","GP_ID":"205122258","SEMIMAJOR_AXIS":"6925.371"},{"INCLINATION":"53.0004","RCS_SIZE":"LARGE","TIME_SYSTEM":"UTC","MEAN_MOTION":"15.15463585","FILE":"3476255","MEAN_MOTION_DOT":"0.00015523","CENTER_NAME":"EARTH","RA_OF_ASC_NODE":"273.9902","EPOCH":"2022-06-01T16:42:23.258592","REF_FRAME":"TEME","EPHEMERIS_TYPE":"0","OBJECT_NAME":"STARLINK-1065","REV_AT_EPOCH":"14081","OBJECT_ID":"2019-074BK","LAUNCH_DATE":"2019-11-11","SITE":"AFETR","DECAY_DATE":null,"PERIOD":"95.020","BSTAR":"0.00082515000000","PERIAPSIS":"518.607","CLASSIFICATION_TYPE":"U","APOAPSIS":"520.540","OBJECT_TYPE":"PAYLOAD","ARG_OF_PERICENTER":"350.7090","TLE_LINE2":"2 44770  53.0004 273.9902 0001401 350.7090   9.3876 15.15463585140818","COUNTRY_CODE":"US","ELEMENT_SET_NO":"999","NORAD_CAT_ID":"44770","MEAN_ANOMALY":"9.3876","MEAN_ELEMENT_THEORY":"SGP4","TLE_LINE1":"1 44770U 19074BK  22152.69610253  .00015523  00000-0  82515-3 0  9997","ECCENTRICITY":"0.00014010","MEAN_MOTION_DDOT":"0.0000000000000","GP_ID":"205122008","SEMIMAJOR_AXIS":"6897.709"},{"LAUNCH_DATE":"2019-11-11","REV_AT_EPOCH":"14064","OBJECT_ID":"2019-074BL","OBJECT_NAME":"STARLINK-1067","EPHEMERIS_TYPE":"0","REF_FRAME":"TEME","EPOCH":"2022-06-01T15:34:41.021760","DECAY_DATE":null,"SITE":"AFETR","FILE":"3476255","MEAN_MOTION":"15.06399284","TIME_SYSTEM":"UTC","RCS_SIZE":"LARGE","INCLINATION":"53.0553","RA_OF_ASC_NODE":"288.3904","MEAN_MOTION_DOT":"0.00002432","CENTER_NAME":"EARTH","MEAN_ELEMENT_THEORY":"SGP4","MEAN_ANOMALY":"314.2015","NORAD_CAT_ID":"44771","ELEMENT_SET_NO":"999","COUNTRY_CODE":"US","SEMIMAJOR_AXIS":"6925.351","GP_ID":"205123260","TLE_LINE1":"1 44771U 19074BL  22152.64908590  .00002432  00000-0  18212-3 0  9995","ECCENTRICITY":"0.00019600","MEAN_MOTION_DDOT":"0.0000000000000","CLASSIFICATION_TYPE":"U","APOAPSIS":"548.573","PERIAPSIS":"545.858","BSTAR":"0.00018212000000","PERIOD":"95.592","TLE_LINE2":"2 44771  53.0553 288.3904 0001960  45.9135 314.2015 15.06399284140641","ARG_OF_PERICENTER":"45.9135","OBJECT_TYPE":"PAYLOAD"},{"DECAY_DATE":null,"SITE":"AFETR","LAUNCH_DATE":"2019-11-11","OBJECT_ID":"2019-074BM","REV_AT_EPOCH":"14088","OBJECT_NAME":"STARLINK-1068","EPHEMERIS_TYPE":"0","REF_FRAME":"TEME","EPOCH":"2022-06-01T10:34:47.983296","RA_OF_ASC_NODE":"269.3354","MEAN_MOTION_DOT":"0.00005989","CENTER_NAME":"EARTH","FILE":"3476255","MEAN_MOTION":"15.06394447","TIME_SYSTEM":"UTC","RCS_SIZE":"LARGE","INCLINATION":"53.0537","GP_ID":"205122987","SEMIMAJOR_AXIS":"6925.366","ECCENTRICITY":"0.00012570","TLE_LINE1":"1 44772U 19074BM  22152.44083314  .00005989  00000-0  42070-3 0  9991","MEAN_MOTION_DDOT":"0.0000000000000","MEAN_ELEMENT_THEORY":"SGP4","MEAN_ANOMALY":"304.2290","NORAD_CAT_ID":"44772","ELEMENT_SET_NO":"999","COUNTRY_CODE":"US","TLE_LINE2":"2 44772  53.0537 269.3354 0001257  55.8818 304.2290 15.06394447140885","ARG_OF_PERICENTER":"55.8818","OBJECT_TYPE":"PAYLOAD","APOAPSIS":"548.101","CLASSIFICATION_TYPE":"U","PERIAPSIS":"546.360","BSTAR":"0.00042070000000","PERIOD":"95.592"},{"DECAY_DATE":null,"SITE":"AFETR","LAUNCH_DATE":"2020-01-07","REV_AT_EPOCH":"13221","OBJECT_ID":"2020-001A","REF_FRAME":"TEME","EPHEMERIS_TYPE":"0","EPOCH":"2022-06-01T03:00:59.305824","OBJECT_NAME":"STARLINK-1073","RA_OF_ASC_NODE":"50.7372","MEAN_MOTION_DOT":"0.00002297","CENTER_NAME":"EARTH","FILE":"3476255","MEAN_MOTION":"15.06392179","RCS_SIZE":"LARGE","TIME_SYSTEM":"UTC","INCLINATION":"53.0559","SEMIMAJOR_AXIS":"6925.373","GP_ID":"205122022","TLE_LINE1":"1 44914U 20001A   22152.12568641  .00002297  00000-0  17312-3 0  9997","ECCENTRICITY":"0.00020970","MEAN_MOTION_DDOT":"0.0000000000000","NORAD_CAT_ID":"44914","ELEMENT_SET_NO":"999","MEAN_ELEMENT_THEORY":"SGP4","MEAN_ANOMALY":"312.6692","COUNTRY_CODE":"US","ARG_OF_PERICENTER":"47.4474","TLE_LINE2":"2 44914  53.0559  50.7372 0002097  47.4474 312.6692 15.06392179132214","OBJECT_TYPE":"PAYLOAD","PERIAPSIS":"545.785","CLASSIFICATION_TYPE":"U","APOAPSIS":"548.690","PERIOD":"95.593","BSTAR":"0.00017312000000"},{"OBJECT_NAME":"STARLINK-1084","EPOCH":"2022-06-01T21:14:24.095904","EPHEMERIS_TYPE":"0","REF_FRAME":"TEME","REV_AT_EPOCH":"13233","OBJECT_ID":"2020-001B","LAUNCH_DATE":"2020-01-07","SITE":"AFETR","DECAY_DATE":null,"INCLINATION":"53.0561","TIME_SYSTEM":"UTC","RCS_SIZE":"LARGE","MEAN_MOTION":"15.06415021","FILE":"3476255","MEAN_MOTION_DOT":"0.00008467","CENTER_NAME":"EARTH","RA_OF_ASC_NODE":"47.3250","COUNTRY_CODE":"US","MEAN_ANOMALY":"295.4352","MEAN_ELEMENT_THEORY":"SGP4","ELEMENT_SET_NO":"999","NORAD_CAT_ID":"44915","TLE_LINE1":"1 44915U 20001B   22152.88500111  .00008467  00000-0  58639-3 0  9991","MEAN_MOTION_DDOT":"0.0000000000000","ECCENTRICITY":"0.00017250","SEMIMAJOR_AXIS":"6925.303","GP_ID":"205123274","BSTAR":"0.00058639000000","PERIOD":"95.591","APOAPSIS":"548.362","CLASSIFICATION_TYPE":"U","PERIAPSIS":"545.973","OBJECT_TYPE":"PAYLOAD","TLE_LINE2":"2 44915  53.0561  47.3250 0001725  64.6816 295.4352 15.06415021132339","ARG_OF_PERICENTER":"64.6816"},{"NORAD_CAT_ID":"44917","ELEMENT_SET_NO":"999","MEAN_ELEMENT_THEORY":"SGP4","MEAN_ANOMALY":"291.8214","COUNTRY_CODE":"US","SEMIMAJOR_AXIS":"6925.402","GP_ID":"205123001","ECCENTRICITY":"0.00018280","TLE_LINE1":"1 44917U 20001D   22152.09252330  .00003586  00000-0  25961-3 0  9992","MEAN_MOTION_DDOT":"0.0000000000000","PERIAPSIS":"546.001","CLASSIFICATION_TYPE":"U","APOAPSIS":"548.532","PERIOD":"95.593","BSTAR":"0.00025961000000","ARG_OF_PERICENTER":"68.2970","TLE_LINE2":"2 44917  53.0565  50.8892 0001828  68.2970 291.8214 15.06382723132217","OBJECT_TYPE":"PAYLOAD","LAUNCH_DATE":"2020-01-07","REV_AT_EPOCH":"13221","OBJECT_ID":"2020-001D","REF_FRAME":"TEME","EPHEMERIS_TYPE":"0","EPOCH":"2022-06-01T02:13:14.013120","OBJECT_NAME":"STARLINK-1098","DECAY_DATE":null,"SITE":"AFETR","FILE":"3476255","MEAN_MOTION":"15.06382723","TIME_SYSTEM":"UTC","RCS_SIZE":"LARGE","INCLINATION":"53.0565","RA_OF_ASC_NODE":"50.8892","CENTER_NAME":"EARTH","MEAN_MOTION_DOT":"0.00003586"},{"OBJECT_TYPE":"PAYLOAD","ARG_OF_PERICENTER":"64.2266","TLE_LINE2":"2 44918  53.0544  48.1537 0001682  64.2266 295.8896 15.06394477133044","PERIOD":"95.592","BSTAR":"0.00009365200000","PERIAPSIS":"546.066","APOAPSIS":"548.395","CLASSIFICATION_TYPE":"U","TLE_LINE1":"1 44918U 20001E   22152.70069684  .00001113  00000-0  93652-4 0  9996","ECCENTRICITY":"0.00016820","MEAN_MOTION_DDOT":"0.0000000000000","SEMIMAJOR_AXIS":"6925.365","GP_ID":"205121773","COUNTRY_CODE":"US","NORAD_CAT_ID":"44918","ELEMENT_SET_NO":"999","MEAN_ELEMENT_THEORY":"SGP4","MEAN_ANOMALY":"295.8896","MEAN_MOTION_DOT":"0.00001113","CENTER_NAME":"EARTH","RA_OF_ASC_NODE":"48.1537","RCS_SIZE":"LARGE","TIME_SYSTEM":"UTC","INCLINATION":"53.0544","MEAN_MOTION":"15.06394477","FILE":"3476255","SITE":"AFETR","DECAY_DATE":null,"EPHEMERIS_TYPE":"0","REF_FRAME":"TEME","EPOCH":"2022-06-01T16:49:00.206976","OBJECT_NAME":"STARLINK-1099","LAUNCH_DATE":"2020-01-07","REV_AT_EPOCH":"13304","OBJECT_ID":"2020-001E"},{"TLE_LINE2":"2 44920  53.0565  49.2922 0001783  56.2110 303.9048 15.06394363132268","ARG_OF_PERICENTER":"56.2110","OBJECT_TYPE":"PAYLOAD","APOAPSIS":"548.466","CLASSIFICATION_TYPE":"U","PERIAPSIS":"545.996","BSTAR":"0.00025060000000","PERIOD":"95.592","SEMIMAJOR_AXIS":"6925.366","GP_ID":"205122522","ECCENTRICITY":"0.00017830","TLE_LINE1":"1 44920U 20001G   22152.45005174  .00003452  00000-0  25060-3 0  9990","MEAN_MOTION_DDOT":"0.0000000000000","MEAN_ANOMALY":"303.9048","MEAN_ELEMENT_THEORY":"SGP4","ELEMENT_SET_NO":"999","NORAD_CAT_ID":"44920","COUNTRY_CODE":"US","RA_OF_ASC_NODE":"49.2922","CENTER_NAME":"EARTH","MEAN_MOTION_DOT":"0.00003452","FILE":"3476255","MEAN_MOTION":"15.06394363","INCLINATION":"53.0565","RCS_SIZE":"LARGE","TIME_SYSTEM":"UTC","DECAY_DATE":null,"SITE":"AFETR","REV_AT_EPOCH":"13226","OBJECT_ID":"2020-001G","LAUNCH_DATE":"2020-01-07","OBJECT_NAME":"STARLINK-1102","EPOCH":"2022-06-01T10:48:04.470336","EPHEMERIS_TYPE":"0","REF_FRAME":"TEME"}];
